{
  "links" : {
    "next" : "https://api.nasa.gov/neo/rest/v1/feed?start_date=2016-06-09&end_date=2016-06-09&detailed=true&api_key=t0TVs3DtDT2H8Oy2Zy8m2eVrNsAVKAexjcZXUckd",
    "prev" : "https://api.nasa.gov/neo/rest/v1/feed?start_date=2016-06-07&end_date=2016-06-07&detailed=true&api_key=t0TVs3DtDT2H8Oy2Zy8m2eVrNsAVKAexjcZXUckd",
    "self" : "https://api.nasa.gov/neo/rest/v1/feed?start_date=2016-06-08&end_date=2016-06-08&detailed=true&api_key=t0TVs3DtDT2H8Oy2Zy8m2eVrNsAVKAexjcZXUckd"
  },
  "element_count" : 11,
  "near_earth_objects" : {
    "2016-06-08" : [ {
      "links" : {
        "self" : "https://api.nasa.gov/neo/rest/v1/neo/3653520?api_key=t0TVs3DtDT2H8Oy2Zy8m2eVrNsAVKAexjcZXUckd"
      },
      "neo_reference_id" : "3653520",
      "name" : "(2013 VZ4)",
      "nasa_jpl_url" : "http://ssd.jpl.nasa.gov/sbdb.cgi?sstr=3653520",
      "absolute_magnitude_h" : 22.9,
      "estimated_diameter" : {
        "kilometers" : {
          "estimated_diameter_min" : 0.0699125232,
          "estimated_diameter_max" : 0.1563291544
        },
        "meters" : {
          "estimated_diameter_min" : 69.9125232246,
          "estimated_diameter_max" : 156.3291544087
        },
        "miles" : {
          "estimated_diameter_min" : 0.0434416145,
          "estimated_diameter_max" : 0.097138403
        },
        "feet" : {
          "estimated_diameter_min" : 229.3718026961,
          "estimated_diameter_max" : 512.8909429502
        }
      },
      "is_potentially_hazardous_asteroid" : false,
      "close_approach_data" : [ {
        "close_approach_date" : "2016-06-08",
        "epoch_date_close_approach" : 1465369200000,
        "relative_velocity" : {
          "kilometers_per_second" : "24.3009103158",
          "kilometers_per_hour" : "87483.2771368645",
          "miles_per_hour" : "54358.7062854034"
        },
        "miss_distance" : {
          "astronomical" : "0.4751550949",
          "lunar" : "184.8353271484",
          "kilometers" : "71082192",
          "miles" : "44168424"
        },
        "orbiting_body" : "Earth"
      } ],
      "orbital_data" : {
        "orbit_id" : "13",
        "orbit_determination_date" : "2017-04-06 08:43:48",
        "orbit_uncertainty" : "6",
        "minimum_orbit_intersection" : ".00793098",
        "jupiter_tisserand_invariant" : "3.616",
        "epoch_osculation" : "2458000.5",
        "eccentricity" : ".5430929830229433",
        "semi_major_axis" : "2.018183407819107",
        "inclination" : "7.293957649400376",
        "ascending_node_longitude" : "195.8559684356864",
        "orbital_period" : "1047.22348691885",
        "perihelion_distance" : ".9221221605792187",
        "perihelion_argument" : "137.2070496614508",
        "aphelion_distance" : "3.114244655058994",
        "perihelion_time" : "2457587.295770863991",
        "mean_anomaly" : "142.0456324242947",
        "mean_motion" : ".3437661630939878",
        "equinox" : "J2000"
      }
    }, {
      "links" : {
        "self" : "https://api.nasa.gov/neo/rest/v1/neo/3754387?api_key=t0TVs3DtDT2H8Oy2Zy8m2eVrNsAVKAexjcZXUckd"
      },
      "neo_reference_id" : "3754387",
      "name" : "(2016 NZ)",
      "nasa_jpl_url" : "http://ssd.jpl.nasa.gov/sbdb.cgi?sstr=3754387",
      "absolute_magnitude_h" : 21.389,
      "estimated_diameter" : {
        "kilometers" : {
          "estimated_diameter_min" : 0.1402022478,
          "estimated_diameter_max" : 0.3135017567
        },
        "meters" : {
          "estimated_diameter_min" : 140.2022478229,
          "estimated_diameter_max" : 313.5017567302
        },
        "miles" : {
          "estimated_diameter_min" : 0.0871176109,
          "estimated_diameter_max" : 0.1948009001
        },
        "feet" : {
          "estimated_diameter_min" : 459.9811427472,
          "estimated_diameter_max" : 1028.5491035508
        }
      },
      "is_potentially_hazardous_asteroid" : false,
      "close_approach_data" : [ {
        "close_approach_date" : "2016-06-08",
        "epoch_date_close_approach" : 1465369200000,
        "relative_velocity" : {
          "kilometers_per_second" : "7.877360973",
          "kilometers_per_hour" : "28358.4995029292",
          "miles_per_hour" : "17620.868760584"
        },
        "miss_distance" : {
          "astronomical" : "0.2519371249",
          "lunar" : "98.0035400391",
          "kilometers" : "37689256",
          "miles" : "23419018"
        },
        "orbiting_body" : "Earth"
      } ],
      "orbital_data" : {
        "orbit_id" : "1",
        "orbit_determination_date" : "2016-07-06 20:12:03",
        "orbit_uncertainty" : "8",
        "minimum_orbit_intersection" : ".171871",
        "jupiter_tisserand_invariant" : "5.477",
        "epoch_osculation" : "2457574.5",
        "eccentricity" : ".3261181517160773",
        "semi_major_axis" : "1.126435218377391",
        "inclination" : "12.70946570969478",
        "ascending_node_longitude" : "124.0947073496763",
        "orbital_period" : "436.6744253789568",
        "perihelion_distance" : ".7590842469322606",
        "perihelion_argument" : "22.58304761721515",
        "aphelion_distance" : "1.493786189822522",
        "perihelion_time" : "2457451.697870436899",
        "mean_anomaly" : "101.2396514963085",
        "mean_motion" : ".824412832713029",
        "equinox" : "J2000"
      }
    }, {
      "links" : {
        "self" : "https://api.nasa.gov/neo/rest/v1/neo/3532365?api_key=t0TVs3DtDT2H8Oy2Zy8m2eVrNsAVKAexjcZXUckd"
      },
      "neo_reference_id" : "3532365",
      "name" : "(2010 MH1)",
      "nasa_jpl_url" : "http://ssd.jpl.nasa.gov/sbdb.cgi?sstr=3532365",
      "absolute_magnitude_h" : 21.3,
      "estimated_diameter" : {
        "kilometers" : {
          "estimated_diameter_min" : 0.1460679643,
          "estimated_diameter_max" : 0.3266178974
        },
        "meters" : {
          "estimated_diameter_min" : 146.0679642714,
          "estimated_diameter_max" : 326.6178974458
        },
        "miles" : {
          "estimated_diameter_min" : 0.090762397,
          "estimated_diameter_max" : 0.2029508896
        },
        "feet" : {
          "estimated_diameter_min" : 479.2256199,
          "estimated_diameter_max" : 1071.581062656
        }
      },
      "is_potentially_hazardous_asteroid" : false,
      "close_approach_data" : [ {
        "close_approach_date" : "2016-06-08",
        "epoch_date_close_approach" : 1465369200000,
        "relative_velocity" : {
          "kilometers_per_second" : "7.8411911206",
          "kilometers_per_hour" : "28228.2880341284",
          "miles_per_hour" : "17539.9604176505"
        },
        "miss_distance" : {
          "astronomical" : "0.251066383",
          "lunar" : "97.6648254395",
          "kilometers" : "37558996",
          "miles" : "23338078"
        },
        "orbiting_body" : "Earth"
      } ],
      "orbital_data" : {
        "orbit_id" : "21",
        "orbit_determination_date" : "2017-04-06 08:57:13",
        "orbit_uncertainty" : "1",
        "minimum_orbit_intersection" : ".169228",
        "jupiter_tisserand_invariant" : "5.482",
        "epoch_osculation" : "2458000.5",
        "eccentricity" : ".3244904951452751",
        "semi_major_axis" : "1.125426183297995",
        "inclination" : "12.64895595064658",
        "ascending_node_longitude" : "124.1377717024277",
        "orbital_period" : "436.0878122512054",
        "perihelion_distance" : ".7602360838301715",
        "perihelion_argument" : "22.51255834268758",
        "aphelion_distance" : "1.490616282765818",
        "perihelion_time" : "2457887.687638755561",
        "mean_anomaly" : "93.12906462197461",
        "mean_motion" : ".8255218097969326",
        "equinox" : "J2000"
      }
    } ]
  }
}